{
  "name": "SATGUS",
  "line1": "1 62713U 25009DJ  26043.21718123  .00007607  00000+0  62583-3 0  9991",
  "line2": "2 62713  97.7113 125.7283 0003270 184.4731 175.6463 14.99394922 58824",
  "fetched_at": "2026-02-13T00:27:22.237379+00:00"
}